[{"OBJECT_NAME":"CONTINUUM-1","OBJECT_ID":"2023-001AN","EPOCH":"2026-03-09T23:17:35.458656","MEAN_MOTION":15.27981258,"ECCENTRICITY":0.00109493,"INCLINATION":97.3456,"RA_OF_ASC_NODE":133.3964,"ARG_OF_PERICENTER":60.1976,"MEAN_ANOMALY":300.0351,"EPHEMERIS_TYPE":0,"CLASSIFICATION_TYPE":"U","NORAD_CAT_ID":55045,"ELEMENT_SET_NO":999,"REV_AT_EPOCH":17709,"BSTAR":0.00052859897,"MEAN_MOTION_DOT":0.00014395,"MEAN_MOTION_DDOT":0},{"OBJECT_NAME":"STARLINK-33805","OBJECT_ID":"2025-076X","EPOCH":"2026-03-09T09:53:06.746496","MEAN_MOTION":15.27562677,"ECCENTRICITY":5.817e-5,"INCLINATION":42.9937,"RA_OF_ASC_NODE":323.6218,"ARG_OF_PERICENTER":345.9487,"MEAN_ANOMALY":14.1348,"EPHEMERIS_TYPE":0,"CLASSIFICATION_TYPE":"U","NORAD_CAT_ID":63590,"ELEMENT_SET_NO":999,"REV_AT_EPOCH":5178,"BSTAR":0.00075955134,"MEAN_MOTION_DOT":0.00020687,"MEAN_MOTION_DDOT":0}]
